{
  "type": "FeatureCollection",
  "features": [
    {
      "type": "Feature",
      "properties": {
        "fire_station_id": "FB13148100015",
        "object_id": "1",
        "feature_id": "FB13148100015",
        "station_name": "Worli Fire Station",
        "type_code": "1",
        "location": "Dr Annie Besant Road, Adarsh Nagar, Prabhadevi, Mumbai - 400030",
        "brd_line_no": "24300178",
        "source_ward": "G/S",
        "created_user": "DMMASTER",
        "created_date": "2018/06/15 15:08:34",
        "last_edited_user": "DMMASTER",
        "last_edited_date": "2019/08/18 22:31:07",
        "edu_update_user": "Sonawane Chandrakala Laxman",
        "edu_update_time": "2023/05/03 16:57:04",
        "source": "BMC/MCGM via OpenCity",
        "source_file": "mumbai_fire_stations.kml",
        "verification_status": "SOURCE_KML",
        "coordinate_valid": true
      },
      "geometry": {
        "type": "Point",
        "coordinates": [
          72.823631709,
          19.0132933080001
        ]
      }
    },
    {
      "type": "Feature",
      "properties": {
        "fire_station_id": "FB15167300013",
        "object_id": "2",
        "feature_id": "FB15167300013",
        "station_name": "Shivaji Park Fire Station",
        "type_code": "1",
        "location": "P N Kotnis Road, Opp Gokul Niwas Society, Mahim West, Mahim, Mumbai- 400016.",
        "brd_line_no": "24457203",
        "source_ward": "G/N",
        "created_user": "DMMASTER",
        "created_date": "2018/06/15 15:08:34",
        "last_edited_user": "DMMASTER",
        "last_edited_date": "2019/08/18 17:40:46",
        "edu_update_user": "PATIL SIDDHI KAPIL",
        "edu_update_time": "2023/05/03 18:30:53",
        "source": "BMC/MCGM via OpenCity",
        "source_file": "mumbai_fire_stations.kml",
        "verification_status": "SOURCE_KML",
        "coordinate_valid": true
      },
      "geometry": {
        "type": "Point",
        "coordinates": [
          72.8410774170001,
          19.033071502
        ]
      }
    },
    {
      "type": "Feature",
      "properties": {
        "fire_station_id": "FB14087000005",
        "object_id": "3",
        "feature_id": "FB14087000005",
        "station_name": "Memonwada Fire Station",
        "type_code": "1",
        "location": "Opposite Bhendi Bazar,  S V P Road, Near Shalimar Hotel, Dongari,  Mumbai - 400009.",
        "brd_line_no": "23478818",
        "source_ward": "B",
        "created_user": "DMMASTER",
        "created_date": "2018/06/15 15:08:34",
        "last_edited_user": "DMMASTER",
        "last_edited_date": "2019/08/18 20:08:16",
        "edu_update_user": null,
        "edu_update_time": null,
        "source": "BMC/MCGM via OpenCity",
        "source_file": "mumbai_fire_stations.kml",
        "verification_status": "SOURCE_KML",
        "coordinate_valid": true
      },
      "geometry": {
        "type": "Point",
        "coordinates": [
          72.8326944830001,
          18.958009761
        ]
      }
    },
    {
      "type": "Feature",
      "properties": {
        "fire_station_id": "FB14097600008",
        "object_id": "4",
        "feature_id": "FB14097600008",
        "station_name": "Fire Brigade Head Quarter",
        "type_code": "1",
        "location": "Opposite Y Bridge, Byculla, Sir JJ Rd, Agripada, Mumbai - 400027.",
        "brd_line_no": "23076111, 23076112, 23076113",
        "source_ward": "E",
        "created_user": "DMMASTER",
        "created_date": "2018/06/15 15:08:34",
        "last_edited_user": "DMMASTER",
        "last_edited_date": "2019/08/18 20:19:12",
        "edu_update_user": null,
        "edu_update_time": null,
        "source": "BMC/MCGM via OpenCity",
        "source_file": "mumbai_fire_stations.kml",
        "verification_status": "SOURCE_KML",
        "coordinate_valid": true
      },
      "geometry": {
        "type": "Point",
        "coordinates": [
          72.8321449490001,
          18.9720291530001
        ]
      }
    },
    {
      "type": "Feature",
      "properties": {
        "fire_station_id": "FB19247700018",
        "object_id": "5",
        "feature_id": "FB19247700018",
        "station_name": "Marol Fire Station",
        "type_code": "1",
        "location": "Marol Maroshi Road, Shivaji Nagar, JJC, Marol, Andheri East, Mumbai - 400047.",
        "brd_line_no": "29200940, 29200941,29200941",
        "source_ward": "K/E",
        "created_user": "DMMASTER",
        "created_date": "2018/06/15 15:08:34",
        "last_edited_user": "DMMASTER",
        "last_edited_date": "2019/08/18 22:46:25",
        "edu_update_user": null,
        "edu_update_time": null,
        "source": "BMC/MCGM via OpenCity",
        "source_file": "mumbai_fire_stations.kml",
        "verification_status": "SOURCE_KML",
        "coordinate_valid": true
      },
      "geometry": {
        "type": "Point",
        "coordinates": [
          72.8775588460001,
          19.110031732
        ]
      }
    },
    {
      "type": "Feature",
      "properties": {
        "fire_station_id": "FB16165900014",
        "object_id": "6",
        "feature_id": "FB16165900014",
        "station_name": "Dharavi Fire Station",
        "type_code": "1",
        "location": "12/e, Jasmine Mill Road, Opp Post Office, Dharavi, Rajashree Shahu Nagar, Mumbai - 400017.",
        "brd_line_no": "24077868",
        "source_ward": "G/N",
        "created_user": "DMMASTER",
        "created_date": "2018/06/15 15:08:34",
        "last_edited_user": "DMMASTER",
        "last_edited_date": "2019/08/18 22:36:42",
        "edu_update_user": "PATIL SIDDHI KAPIL",
        "edu_update_time": "2023/05/03 18:31:51",
        "source": "BMC/MCGM via OpenCity",
        "source_file": "mumbai_fire_stations.kml",
        "verification_status": "SOURCE_KML",
        "coordinate_valid": true
      },
      "geometry": {
        "type": "Point",
        "coordinates": [
          72.8499780170001,
          19.0392976640001
        ]
      }
    },
    {
      "type": "Feature",
      "properties": {
        "fire_station_id": "FB15257000020",
        "object_id": "7",
        "feature_id": "FB15257000020",
        "station_name": "Andheri Fire Station",
        "type_code": "1",
        "location": "Near Bharat Petrol Pump, Irla Signal, Swami Vivekanand Rd, Irla Bridge, Andheri West, Mumbai - 400058.",
        "brd_line_no": "26205301",
        "source_ward": "K/W",
        "created_user": "DMMASTER",
        "created_date": "2018/06/15 15:08:34",
        "last_edited_user": "DMMASTER",
        "last_edited_date": "2019/08/19 15:53:28",
        "edu_update_user": "Deshmukh Ajit Namdeo",
        "edu_update_time": "2016/10/24 23:22:16",
        "source": "BMC/MCGM via OpenCity",
        "source_file": "mumbai_fire_stations.kml",
        "verification_status": "SOURCE_KML",
        "coordinate_valid": true
      },
      "geometry": {
        "type": "Point",
        "coordinates": [
          72.840679854,
          19.1122520970001
        ]
      }
    },
    {
      "type": "Feature",
      "properties": {
        "fire_station_id": "FB16221900019",
        "object_id": "8",
        "feature_id": "FB16221900019",
        "station_name": "Vile Parle Fire Station",
        "type_code": "1",
        "location": "Azad Road, Akash Kiran Society, Navpada, Vile Parle East, Mumbai - 400057.",
        "brd_line_no": "26112121",
        "source_ward": "K/E",
        "created_user": "DMMASTER",
        "created_date": "2018/06/15 15:08:34",
        "last_edited_user": "DMMASTER",
        "last_edited_date": "2019/08/18 22:39:19",
        "edu_update_user": null,
        "edu_update_time": null,
        "source": "BMC/MCGM via OpenCity",
        "source_file": "mumbai_fire_stations.kml",
        "verification_status": "SOURCE_KML",
        "coordinate_valid": true
      },
      "geometry": {
        "type": "Point",
        "coordinates": [
          72.8442092060001,
          19.092703215
        ]
      }
    },
    {
      "type": "Feature",
      "properties": {
        "fire_station_id": "FB18164500009",
        "object_id": "9",
        "feature_id": "FB18164500009",
        "station_name": "Raoli Camp Fire Station",
        "type_code": "1",
        "location": "Lailabai Kashe Marg, Guru Teg Bahadur Nagar, Sion Koliwada, Mumbai - 400022.",
        "brd_line_no": "24077841",
        "source_ward": "F/N",
        "created_user": "DMMASTER",
        "created_date": "2018/06/15 15:08:34",
        "last_edited_user": "DMMASTER",
        "last_edited_date": "2019/08/18 22:29:17",
        "edu_update_user": "Mane Minakshi Amar",
        "edu_update_time": "2020/09/18 16:50:15",
        "source": "BMC/MCGM via OpenCity",
        "source_file": "mumbai_fire_stations.kml",
        "verification_status": "SOURCE_KML",
        "coordinate_valid": true
      },
      "geometry": {
        "type": "Point",
        "coordinates": [
          72.866819686,
          19.035569047
        ]
      }
    },
    {
      "type": "Feature",
      "properties": {
        "fire_station_id": "FB15119100012",
        "object_id": "10",
        "feature_id": "FB15119100012",
        "station_name": "Sewri (Cotton Green) Fire Station",
        "type_code": "1",
        "location": "Unit2, First Street, Zakaria Bunder Road, Sewri, Mumbai - 400033",
        "brd_line_no": "23775756",
        "source_ward": "F/S",
        "created_user": "DMMASTER",
        "created_date": "2018/06/15 15:08:34",
        "last_edited_user": "DMMASTER",
        "last_edited_date": "2019/08/18 22:23:11",
        "edu_update_user": null,
        "edu_update_time": null,
        "source": "BMC/MCGM via OpenCity",
        "source_file": "mumbai_fire_stations.kml",
        "verification_status": "SOURCE_KML",
        "coordinate_valid": true
      },
      "geometry": {
        "type": "Point",
        "coordinates": [
          72.843232954,
          18.9854369020001
        ]
      }
    },
    {
      "type": "Feature",
      "properties": {
        "fire_station_id": "FB16141200011",
        "object_id": "11",
        "feature_id": "FB16141200011",
        "station_name": "Dadar Fire Station",
        "type_code": "1",
        "location": "Dr. Babasaheb Ambedkar Road, Old BDD Chawl, Dadar East, Mumbai - 400014.",
        "brd_line_no": "24134200",
        "source_ward": "F/S",
        "created_user": "DMMASTER",
        "created_date": "2018/06/15 15:08:34",
        "last_edited_user": "DMMASTER",
        "last_edited_date": "2019/08/18 22:25:16",
        "edu_update_user": "Sonawane Chandrakala Laxman",
        "edu_update_time": "2023/05/03 16:56:38",
        "source": "BMC/MCGM via OpenCity",
        "source_file": "mumbai_fire_stations.kml",
        "verification_status": "SOURCE_KML",
        "coordinate_valid": true
      },
      "geometry": {
        "type": "Point",
        "coordinates": [
          72.8455960000001,
          19.014301
        ]
      }
    },
    {
      "type": "Feature",
      "properties": {
        "fire_station_id": "FB18157400010",
        "object_id": "12",
        "feature_id": "FB18157400010",
        "station_name": "Wadala Fire Station",
        "type_code": "1",
        "location": "14, Shaikh Mistry Road, Sangam Nagar, Wadala (East), Mumbai - 400037.",
        "brd_line_no": "24132058",
        "source_ward": "F/N",
        "created_user": "DMMASTER",
        "created_date": "2018/06/15 15:08:34",
        "last_edited_user": "DMMASTER",
        "last_edited_date": "2019/08/18 22:27:33",
        "edu_update_user": null,
        "edu_update_time": null,
        "source": "BMC/MCGM via OpenCity",
        "source_file": "mumbai_fire_stations.kml",
        "verification_status": "SOURCE_KML",
        "coordinate_valid": true
      },
      "geometry": {
        "type": "Point",
        "coordinates": [
          72.87012695,
          19.0250315390001
        ]
      }
    },
    {
      "type": "Feature",
      "properties": {
        "fire_station_id": "FB13039300003",
        "object_id": "13",
        "feature_id": "FB13039300003",
        "station_name": "Colaba Fire Station",
        "type_code": "1",
        "location": "Near Sasoon Dock & Mukesh Mill, Near Sasson Dock, Narayan A Sawant Road, Colaba\nMumbai - 400005.",
        "brd_line_no": "22043603",
        "source_ward": "A",
        "created_user": "DMMASTER",
        "created_date": "2018/06/15 15:08:34",
        "last_edited_user": "DMMASTER",
        "last_edited_date": "2019/08/18 19:33:29",
        "edu_update_user": null,
        "edu_update_time": null,
        "source": "BMC/MCGM via OpenCity",
        "source_file": "mumbai_fire_stations.kml",
        "verification_status": "SOURCE_KML",
        "coordinate_valid": true
      },
      "geometry": {
        "type": "Point",
        "coordinates": [
          72.826103,
          18.915403
        ]
      }
    },
    {
      "type": "Feature",
      "properties": {
        "fire_station_id": "FB13049100004",
        "object_id": "14",
        "feature_id": "FB13049100004",
        "station_name": "Nariman Point Fire Station",
        "type_code": "1",
        "location": "Gen Jagannath Bhosle Road,  Near Sarang TowerNariman Point, Mumbai - 400021.",
        "brd_line_no": "22882787",
        "source_ward": "A",
        "created_user": "DMMASTER",
        "created_date": "2018/06/15 15:08:34",
        "last_edited_user": "DMMASTER",
        "last_edited_date": "2019/08/18 19:37:05",
        "edu_update_user": null,
        "edu_update_time": null,
        "source": "BMC/MCGM via OpenCity",
        "source_file": "mumbai_fire_stations.kml",
        "verification_status": "SOURCE_KML",
        "coordinate_valid": true
      },
      "geometry": {
        "type": "Point",
        "coordinates": [
          72.826042498,
          18.923076528
        ]
      }
    },
    {
      "type": "Feature",
      "properties": {
        "fire_station_id": "FB29311500032",
        "object_id": "15",
        "feature_id": "FB29311500032",
        "station_name": "Gawanpada Fire Station",
        "type_code": "1",
        "location": "Near Gawanpada Road, V.S Road, Gawanpada, Mulund East, Mumbai - 400081.",
        "brd_line_no": "25639191",
        "source_ward": "T",
        "created_user": "DMMASTER",
        "created_date": "2018/06/15 15:08:34",
        "last_edited_user": "DMMASTER",
        "last_edited_date": "2021/07/13 18:08:54",
        "edu_update_user": "Dhanke Yashwant Gopal",
        "edu_update_time": "2021/05/10 00:25:26",
        "source": "BMC/MCGM via OpenCity",
        "source_file": "mumbai_fire_stations.kml",
        "verification_status": "SOURCE_KML",
        "coordinate_valid": true
      },
      "geometry": {
        "type": "Point",
        "coordinates": [
          72.9663054150001,
          19.1720633730001
        ]
      }
    },
    {
      "type": "Feature",
      "properties": {
        "fire_station_id": "FS23000000001",
        "object_id": "16",
        "feature_id": "FS23000000001",
        "station_name": "Thakur Village Mini Fire Station",
        "type_code": "1",
        "location": "Thakur Village Mini Fire Station, Thakur Village Road, Near Thakur Shyamnarayan High School just, Kandivali, Mumbai, 400101",
        "brd_line_no": "022 2805 0101",
        "source_ward": "R/S",
        "created_user": "DMMASTER",
        "created_date": "2019/12/29 18:50:05",
        "last_edited_user": "DMMASTER",
        "last_edited_date": "2019/12/29 18:50:23",
        "edu_update_user": null,
        "edu_update_time": null,
        "source": "BMC/MCGM via OpenCity",
        "source_file": "mumbai_fire_stations.kml",
        "verification_status": "SOURCE_KML",
        "coordinate_valid": true
      },
      "geometry": {
        "type": "Point",
        "coordinates": [
          72.8728776,
          19.2131832000001
        ]
      }
    },
    {
      "type": "Feature",
      "properties": {
        "fire_station_id": "FB20215900021",
        "object_id": "17",
        "feature_id": "FB20215900021",
        "station_name": "Kurla Fire Staion",
        "type_code": "1",
        "location": "Kurla Fire Station, Lal Bahadur Shastri Marg, Near Phoenix Mall, Kurla West, Mumbai, 400070",
        "brd_line_no": "25039200",
        "source_ward": "L",
        "created_user": "Innowave",
        "created_date": "2018/05/31 11:45:38",
        "last_edited_user": "DMMASTER@PRSRVGISDB.MUMBASE.MCGM.GOV.IN",
        "last_edited_date": "2022/01/27 18:22:13",
        "edu_update_user": "Rathod Savita Ghevarchand",
        "edu_update_time": "2021/08/07 11:47:57",
        "source": "BMC/MCGM via OpenCity",
        "source_file": "mumbai_fire_stations.kml",
        "verification_status": "SOURCE_KML",
        "coordinate_valid": true
      },
      "geometry": {
        "type": "Point",
        "coordinates": [
          72.8858245000001,
          19.0847462
        ]
      }
    },
    {
      "type": "Feature",
      "properties": {
        "fire_station_id": "FB15324300027",
        "object_id": "18",
        "feature_id": "FB15324300027",
        "station_name": "Chincholi Fire Station",
        "type_code": "1",
        "location": "Link Rd, Malad West, Mumbai - 400064.",
        "brd_line_no": "28769101",
        "source_ward": "P/S",
        "created_user": "DMMASTER",
        "created_date": "2018/06/15 15:08:34",
        "last_edited_user": "DMMASTER",
        "last_edited_date": "2020/08/21 11:55:28",
        "edu_update_user": null,
        "edu_update_time": null,
        "source": "BMC/MCGM via OpenCity",
        "source_file": "mumbai_fire_stations.kml",
        "verification_status": "SOURCE_KML",
        "coordinate_valid": true
      },
      "geometry": {
        "type": "Point",
        "coordinates": [
          72.836593394,
          19.177419023
        ]
      }
    },
    {
      "type": "Feature",
      "properties": {
        "fire_station_id": "FB15298600028",
        "object_id": "19",
        "feature_id": "FB15298600028",
        "station_name": "Goregaon Motilal Nagar Fire Station",
        "type_code": "1",
        "location": "Shri Gajanan Maharaj Marg, opp BEST staff colony and Imperial Height, Road Number 6, Motilal Nagar, Goregaon West, Mumbai - 400104.",
        "brd_line_no": "28712869",
        "source_ward": "P/S",
        "created_user": "DMMASTER",
        "created_date": "2018/06/15 15:08:34",
        "last_edited_user": "DMMASTER",
        "last_edited_date": "2020/08/21 11:57:31",
        "edu_update_user": null,
        "edu_update_time": null,
        "source": "BMC/MCGM via OpenCity",
        "source_file": "mumbai_fire_stations.kml",
        "verification_status": "SOURCE_KML",
        "coordinate_valid": true
      },
      "geometry": {
        "type": "Point",
        "coordinates": [
          72.840406026,
          19.153548566
        ]
      }
    },
    {
      "type": "Feature",
      "properties": {
        "fire_station_id": "FB16359400031",
        "object_id": "20",
        "feature_id": "FB16359400031",
        "station_name": "Kandivali Fire Station",
        "type_code": "1",
        "location": "K Nehru Road, Jethava Nagar, Kandivali (W), Mumbai - 400067.",
        "brd_line_no": "28050101",
        "source_ward": "R/S",
        "created_user": "DMMASTER",
        "created_date": "2018/06/15 15:08:34",
        "last_edited_user": "DMMASTER",
        "last_edited_date": "2020/08/21 11:58:32",
        "edu_update_user": null,
        "edu_update_time": null,
        "source": "BMC/MCGM via OpenCity",
        "source_file": "mumbai_fire_stations.kml",
        "verification_status": "SOURCE_KML",
        "coordinate_valid": true
      },
      "geometry": {
        "type": "Point",
        "coordinates": [
          72.850624,
          19.206017
        ]
      }
    },
    {
      "type": "Feature",
      "properties": {
        "fire_station_id": "FB06000000001",
        "object_id": "21",
        "feature_id": "FB06000000001",
        "station_name": "Regional Command Centre Zone2",
        "type_code": "1",
        "location": "Regional Command Centre Zone2, SMD Road, Near Shiv Mandir, Wadala, Mumbai, 400037",
        "brd_line_no": "022 24132058",
        "source_ward": "F/N",
        "created_user": "DMMASTER",
        "created_date": "2019/08/18 20:22:41",
        "last_edited_user": "DMMASTER@PRSRVGISDB.MUMBASE.MCGM.GOV.IN",
        "last_edited_date": "2022/01/27 18:23:54",
        "edu_update_user": null,
        "edu_update_time": null,
        "source": "BMC/MCGM via OpenCity",
        "source_file": "mumbai_fire_stations.kml",
        "verification_status": "SOURCE_KML",
        "coordinate_valid": true
      },
      "geometry": {
        "type": "Point",
        "coordinates": [
          72.8702810030001,
          19.024918917
        ]
      }
    },
    {
      "type": "Feature",
      "properties": {
        "fire_station_id": "FB18402000030",
        "object_id": "22",
        "feature_id": "FB18402000030",
        "station_name": "Dahisar Fire Station",
        "type_code": "1",
        "location": "Swami Vivekanand Road, Opp BMC Garden, Dahisar East, Mumbai",
        "brd_line_no": "28977702",
        "source_ward": "R/N",
        "created_user": "DMMASTER",
        "created_date": "2018/06/15 15:08:34",
        "last_edited_user": "DMMASTER",
        "last_edited_date": "2020/08/21 12:08:55",
        "edu_update_user": null,
        "edu_update_time": null,
        "source": "BMC/MCGM via OpenCity",
        "source_file": "mumbai_fire_stations.kml",
        "verification_status": "SOURCE_KML",
        "coordinate_valid": true
      },
      "geometry": {
        "type": "Point",
        "coordinates": [
          72.8624954060001,
          19.247481545
        ]
      }
    },
    {
      "type": "Feature",
      "properties": {
        "fire_station_id": "FB17181900016",
        "object_id": "23",
        "feature_id": "FB17181900016",
        "station_name": "BKC Fire Station",
        "type_code": "1",
        "location": "Bandra Kurla Complex, Bandra East, Mumbai - 400051.",
        "brd_line_no": "26522426",
        "source_ward": "H/E",
        "created_user": "DMMASTER",
        "created_date": "2018/06/15 15:08:34",
        "last_edited_user": "DMMASTER",
        "last_edited_date": "2020/08/21 11:51:12",
        "edu_update_user": null,
        "edu_update_time": null,
        "source": "BMC/MCGM via OpenCity",
        "source_file": "mumbai_fire_stations.kml",
        "verification_status": "SOURCE_KML",
        "coordinate_valid": true
      },
      "geometry": {
        "type": "Point",
        "coordinates": [
          72.8545,
          19.056992
        ]
      }
    },
    {
      "type": "Feature",
      "properties": {
        "fire_station_id": "FB15388100029",
        "object_id": "24",
        "feature_id": "FB15388100029",
        "station_name": "Borivali Fire Station",
        "type_code": "1",
        "location": "Borivali Fire Station, Lokmanya Tilak Road, Near Link Road, Borivali West, Mumbai, Maharashtra, 400091",
        "brd_line_no": "022 28602847",
        "source_ward": "R/C",
        "created_user": "DMMASTER",
        "created_date": "2019/08/18 20:31:19",
        "last_edited_user": "DMMASTER@PRSRVGISDB.MUMBASE.MCGM.GOV.IN",
        "last_edited_date": "2022/01/27 18:24:07",
        "edu_update_user": null,
        "edu_update_time": null,
        "source": "BMC/MCGM via OpenCity",
        "source_file": "mumbai_fire_stations.kml",
        "verification_status": "SOURCE_KML",
        "coordinate_valid": true
      },
      "geometry": {
        "type": "Point",
        "coordinates": [
          72.8406908740001,
          19.2296791840001
        ]
      }
    },
    {
      "type": "Feature",
      "properties": {
        "fire_station_id": "FB12086400007",
        "object_id": "25",
        "feature_id": "FB12086400007",
        "station_name": "Gowalia Tank Fire Station",
        "type_code": "1",
        "location": "Nana Chowk, August Kranti Marg, Mumbai - 400007.",
        "brd_line_no": "23806001",
        "source_ward": "D",
        "created_user": "DMMASTER",
        "created_date": "2018/06/15 15:08:34",
        "last_edited_user": "DMMASTER@PRSRVGISDB.MUMBASE.MCGM.GOV.IN",
        "last_edited_date": "2022/03/24 00:29:23",
        "edu_update_user": "Patil Gajanan Nana",
        "edu_update_time": "2023/05/15 16:26:23",
        "source": "BMC/MCGM via OpenCity",
        "source_file": "mumbai_fire_stations.kml",
        "verification_status": "SOURCE_KML",
        "coordinate_valid": true
      },
      "geometry": {
        "type": "Point",
        "coordinates": [
          72.8127316170001,
          18.961637389
        ]
      }
    },
    {
      "type": "Feature",
      "properties": {
        "fire_station_id": "FB14340400026",
        "object_id": "26",
        "feature_id": "FB14340400026",
        "station_name": "Malad Malwani Fire Station",
        "type_code": "1",
        "location": "Asmita Jyoti Housing Society, Malad (W),  Mumbai - 400095.",
        "brd_line_no": "28071010",
        "source_ward": "P/N",
        "created_user": "DMMASTER",
        "created_date": "2018/06/15 15:08:34",
        "last_edited_user": "DMMASTER@PRSRVGISDB.MUMBASE.MCGM.GOV.IN",
        "last_edited_date": "2022/03/24 00:53:46",
        "edu_update_user": null,
        "edu_update_time": null,
        "source": "BMC/MCGM via OpenCity",
        "source_file": "mumbai_fire_stations.kml",
        "verification_status": "SOURCE_KML",
        "coordinate_valid": true
      },
      "geometry": {
        "type": "Point",
        "coordinates": [
          72.8229569380001,
          19.1967546230001
        ]
      }
    },
    {
      "type": "Feature",
      "properties": {
        "fire_station_id": "FB21182600023",
        "object_id": "27",
        "feature_id": "FB21182600023",
        "station_name": "Chembur Fire Station",
        "type_code": "1",
        "location": "V N Purav Marg, Chembur, Mumbai - 400074",
        "brd_line_no": "25224824",
        "source_ward": "M/W",
        "created_user": "DMMASTER",
        "created_date": "2018/06/15 15:08:34",
        "last_edited_user": "DMMASTER@PRSRVGISDB.MUMBASE.MCGM.GOV.IN",
        "last_edited_date": "2022/03/24 00:50:06",
        "edu_update_user": "Burkul Kavita Balu",
        "edu_update_time": "2021/08/11 11:09:01",
        "source": "BMC/MCGM via OpenCity",
        "source_file": "mumbai_fire_stations.kml",
        "verification_status": "SOURCE_KML",
        "coordinate_valid": true
      },
      "geometry": {
        "type": "Point",
        "coordinates": [
          72.8935416300001,
          19.054555748
        ]
      }
    },
    {
      "type": "Feature",
      "properties": {
        "fire_station_id": "FB15183200017",
        "object_id": "28",
        "feature_id": "FB15183200017",
        "station_name": "Bandra Fire Station",
        "type_code": "1",
        "location": "Bandra Reclamation, S V Road, Bandra (W), Mumbai - 400050.",
        "brd_line_no": "26435206",
        "source_ward": "H/W",
        "created_user": "DMMASTER",
        "created_date": "2018/06/15 15:08:34",
        "last_edited_user": "DMMASTER",
        "last_edited_date": "2020/11/28 18:22:17",
        "edu_update_user": "Hande Someshwari Anil",
        "edu_update_time": "2020/10/18 18:04:16",
        "source": "BMC/MCGM via OpenCity",
        "source_file": "mumbai_fire_stations.kml",
        "verification_status": "SOURCE_KML",
        "coordinate_valid": true
      },
      "geometry": {
        "type": "Point",
        "coordinates": [
          72.8375780000001,
          19.050398
        ]
      }
    },
    {
      "type": "Feature",
      "properties": {
        "fire_station_id": "FB10000010034",
        "object_id": "29",
        "feature_id": "FB10000010034",
        "station_name": "Mankhurd Pradeshik Samadesh Kendra",
        "type_code": "1",
        "location": "Ghatkopar Mankhurd Link Road, Opp. Sathye Nagar. Mumbai 400043",
        "brd_line_no": null,
        "source_ward": "M/E",
        "created_user": "DMMASTER",
        "created_date": "2018/06/15 15:08:34",
        "last_edited_user": "DMMASTER",
        "last_edited_date": "2020/11/28 18:25:36",
        "edu_update_user": null,
        "edu_update_time": null,
        "source": "BMC/MCGM via OpenCity",
        "source_file": "mumbai_fire_stations.kml",
        "verification_status": "SOURCE_KML",
        "coordinate_valid": true
      },
      "geometry": {
        "type": "Point",
        "coordinates": [
          72.9311065940001,
          19.0567603910001
        ]
      }
    },
    {
      "type": "Feature",
      "properties": {
        "fire_station_id": "FB15065700001",
        "object_id": "30",
        "feature_id": "FB15065700001",
        "station_name": "Carnac Bunder (Indira Dock) Fire Station",
        "type_code": "1",
        "location": "P D Mello Road, Near Hotel Sealord, Fort. Mumbai - 400001.",
        "brd_line_no": "22611589",
        "source_ward": "A",
        "created_user": "DMMASTER",
        "created_date": "2018/06/15 15:08:34",
        "last_edited_user": "DMMASTER",
        "last_edited_date": "2020/11/28 16:30:50",
        "edu_update_user": "1 computer operator",
        "edu_update_time": "2020/01/07 14:55:44",
        "source": "BMC/MCGM via OpenCity",
        "source_file": "mumbai_fire_stations.kml",
        "verification_status": "SOURCE_KML",
        "coordinate_valid": true
      },
      "geometry": {
        "type": "Point",
        "coordinates": [
          72.8403020000001,
          18.9464110000001
        ]
      }
    },
    {
      "type": "Feature",
      "properties": {
        "fire_station_id": "FB14059400002",
        "object_id": "31",
        "feature_id": "FB14059400002",
        "station_name": "Fort Fire Station",
        "type_code": "1",
        "location": "Syed Abdullah Brelvi Marg,  Near Vidya Dairy Farm,Fort, Mumbai - 400001.",
        "brd_line_no": "22611942",
        "source_ward": "A",
        "created_user": "DMMASTER",
        "created_date": "2018/06/15 15:08:34",
        "last_edited_user": "DMMASTER",
        "last_edited_date": "2020/11/28 16:31:28",
        "edu_update_user": "1 computer operator",
        "edu_update_time": "2020/01/07 14:57:22",
        "source": "BMC/MCGM via OpenCity",
        "source_file": "mumbai_fire_stations.kml",
        "verification_status": "SOURCE_KML",
        "coordinate_valid": true
      },
      "geometry": {
        "type": "Point",
        "coordinates": [
          72.8346480000001,
          18.934914
        ]
      }
    },
    {
      "type": "Feature",
      "properties": {
        "fire_station_id": "FB18320000025",
        "object_id": "32",
        "feature_id": "FB18320000025",
        "station_name": "Dindoshi Fire Station",
        "type_code": "1",
        "location": "Dindoshi, Malad East, Mumbai - 400097",
        "brd_line_no": "28406729",
        "source_ward": "P/N",
        "created_user": "DMMASTER",
        "created_date": "2018/06/15 15:08:34",
        "last_edited_user": "DMMASTER",
        "last_edited_date": "2020/11/28 16:25:16",
        "edu_update_user": null,
        "edu_update_time": null,
        "source": "BMC/MCGM via OpenCity",
        "source_file": "mumbai_fire_stations.kml",
        "verification_status": "SOURCE_KML",
        "coordinate_valid": true
      },
      "geometry": {
        "type": "Point",
        "coordinates": [
          72.860954,
          19.174995
        ]
      }
    },
    {
      "type": "Feature",
      "properties": {
        "fire_station_id": "FB15076900006",
        "object_id": "33",
        "feature_id": "FB15076900006",
        "station_name": "Mandvi Fire Station",
        "type_code": "1",
        "location": "Sardar Valla bhbhai Patel Road, Opp Wadibunder Coaching Complex, Wadibunder. Mumbai - 400003.",
        "brd_line_no": "23716694",
        "source_ward": "B",
        "created_user": "DMMASTER",
        "created_date": "2018/06/15 15:08:34",
        "last_edited_user": "DMMASTER@PRSRVGISDB.MUMBASE.MCGM.GOV.IN",
        "last_edited_date": "2022/03/21 17:14:13",
        "edu_update_user": null,
        "edu_update_time": null,
        "source": "BMC/MCGM via OpenCity",
        "source_file": "mumbai_fire_stations.kml",
        "verification_status": "SOURCE_KML",
        "coordinate_valid": true
      },
      "geometry": {
        "type": "Point",
        "coordinates": [
          72.841701765,
          18.957292234
        ]
      }
    },
    {
      "type": "Feature",
      "properties": {
        "fire_station_id": "FB20203500022",
        "object_id": "34",
        "feature_id": "FB20203500022",
        "station_name": "Deonar Fire Station",
        "type_code": "1",
        "location": "5/4 Sector, New Municipal Colony, Shivaji Nagar, Mumbai - 400043",
        "brd_line_no": "25563391",
        "source_ward": "M/E",
        "created_user": "DMMASTER",
        "created_date": "2018/06/15 15:08:34",
        "last_edited_user": "DMMASTER@PRSRVGISDB.MUMBASE.MCGM.GOV.IN",
        "last_edited_date": "2022/03/24 00:49:07",
        "edu_update_user": null,
        "edu_update_time": null,
        "source": "BMC/MCGM via OpenCity",
        "source_file": "mumbai_fire_stations.kml",
        "verification_status": "SOURCE_KML",
        "coordinate_valid": true
      },
      "geometry": {
        "type": "Point",
        "coordinates": [
          72.9245638290001,
          19.053285062
        ]
      }
    },
    {
      "type": "Feature",
      "properties": {
        "fire_station_id": "FB26316900033",
        "object_id": "35",
        "feature_id": "FB26316900033",
        "station_name": "Mulund Fire Station",
        "type_code": "1",
        "location": "Lal Bahadur Shastri Marg, Mulund Colony, Mulund West, Mumbai - 400080.",
        "brd_line_no": "25687637",
        "source_ward": "T",
        "created_user": "DMMASTER",
        "created_date": "2018/06/15 15:08:34",
        "last_edited_user": "DMMASTER@PRSRVGISDB.MUMBASE.MCGM.GOV.IN",
        "last_edited_date": "2022/03/24 00:56:38",
        "edu_update_user": "Dhanke Yashwant Gopal",
        "edu_update_time": "2021/05/10 00:14:35",
        "source": "BMC/MCGM via OpenCity",
        "source_file": "mumbai_fire_stations.kml",
        "verification_status": "SOURCE_KML",
        "coordinate_valid": true
      },
      "geometry": {
        "type": "Point",
        "coordinates": [
          72.942607374,
          19.1753852100001
        ]
      }
    },
    {
      "type": "Feature",
      "properties": {
        "fire_station_id": "FB23239700024",
        "object_id": "36",
        "feature_id": "FB23239700024",
        "station_name": "Vikhroli Fire Station",
        "type_code": "1",
        "location": "Near L.B.S. Road, Vikhroli Park Site, L.B.S. Marg, Nivlekar Rd, BMC Colony, Vikhroli West, Mumbai - 400079.",
        "brd_line_no": "25170730",
        "source_ward": "N",
        "created_user": "DMMASTER",
        "created_date": "2018/06/15 15:08:34",
        "last_edited_user": "DMMASTER",
        "last_edited_date": "2020/08/21 11:53:03",
        "edu_update_user": "Rathod Savita Ghevarchand",
        "edu_update_time": "2021/08/07 11:42:49",
        "source": "BMC/MCGM via OpenCity",
        "source_file": "mumbai_fire_stations.kml",
        "verification_status": "SOURCE_KML",
        "coordinate_valid": true
      },
      "geometry": {
        "type": "Point",
        "coordinates": [
          72.918259371,
          19.100973916
        ]
      }
    }
  ]
}